NORAD_CAT_ID,OBJECT_NAME,OBJECT_TYPE,EPOCH,MEAN_MOTION,ECCENTRICITY,INCLINATION,RA_OF_ASC_NODE,ARG_OF_PERICENTER,MEAN_ANOMALY,BSTAR,MEAN_MOTION_DOT,MEAN_MOTION_DDOT,TLE_LINE0,TLE_LINE1,TLE_LINE2,SEMIMAJOR_AXIS,PERIOD,APOGEE,PERIGEE,DECAYED
52707.0,STARLINK-4007,PAYLOAD,2022-06-12 20:00:01,15.73208118,0.0002796,53.2155,172.0864,23.3409,122.7233,0.00041443,0.00057972,0.0,0 STARLINK-4007,1 52707U 22053BD  22163.83334491  .00057972  00000-0  41443-3 0  9991,2 52707  53.2155 172.0864 0002796  23.3409 122.7233 15.73208118  4311,6727.871999999999,91.533,351.61800000000005,347.856,0.0
52707.0,STARLINK-4007,PAYLOAD,2022-06-12 22:00:00,15.73224059,0.0002747,53.2154,171.6737,23.7435,234.5573,0.00023329,0.00032283,0.0,0 STARLINK-4007,1 52707U 22053BD  22163.91667824  .00032283  00000-0  23329-3 0  9990,2 52707  53.2154 171.6737 0002747  23.7435 234.5573 15.73224059  1300,6727.8269999999975,91.532,351.54,347.843,0.0
52707.0,STARLINK-4007,PAYLOAD,2022-06-13 12:00:00,15.73245689,0.0002898999999999,53.215,168.7893,16.4989,307.517,-0.00017092,-0.00024593,0.0,0 STARLINK-4007,1 52707U 22053BD  22164.50001157 -.00024593  00000-0 -17092-3 0  9994,2 52707  53.2150 168.7893 0002899  16.4989 307.5170 15.73245689  4429,6727.765,91.531,351.58,347.68,0.0
52707.0,STARLINK-4007,PAYLOAD,2022-06-13 14:00:01,15.73254375,0.0002856,53.215,168.3763,16.3675,59.8906,-0.00037944,-0.00053672,0.0,0 STARLINK-4007,1 52707U 22053BD  22164.58334491 -.00053672  00000-0 -37944-3 0  9990,2 52707  53.2150 168.3763 0002856  16.3675  59.8906 15.73254375  1305,6727.74,91.53,351.527,347.684,0.0
52707.0,STARLINK-4007,PAYLOAD,2022-06-13 22:00:00,15.73201252,0.0002582,53.2153,166.7247,15.9186,149.3145,-6.1137e-05,-9.195e-05,0.0,0 STARLINK-4007,1 52707U 22053BD  22164.91667824 -.00009195  00000-0 -61137-4 0  9999,2 52707  53.2153 166.7247 0002582  15.9186 149.3145 15.73201252  1301,6727.892,91.533,351.494,348.019,0.0
52707.0,STARLINK-4007,PAYLOAD,2022-06-14 06:00:00,15.73176725,0.000285,53.2155,165.077,17.8548,236.3156,-7.6315e-05,-0.0001131,0.0,0 STARLINK-4007,1 52707U 22053BD  22165.25001157 -.00011310  00000-0 -76315-4 0  9994,2 52707  53.2155 165.0770 0002850  17.8548 236.3156 15.73176725  4541,6727.962,91.535,351.744,347.909,0.0
52707.0,STARLINK-4007,PAYLOAD,2022-06-14 14:00:01,15.73218135,0.0002862,53.2154,163.4275,15.7073,327.3473,-0.00042759,-0.00060264,0.0,0 STARLINK-4007,1 52707U 22053BD  22165.58334491 -.00060264  00000-0 -42759-3 0  9996,2 52707  53.2154 163.4275 0002862  15.7073 327.3473 15.73218135  1301,6727.843000000003,91.532,351.634,347.783,0.0
52707.0,STARLINK-4007,PAYLOAD,2022-06-14 22:00:00,15.73124081,0.0002595,53.2155,161.7763,17.029,54.9338,0.00060675,0.0008513,0.0,0 STARLINK-4007,1 52707U 22053BD  22165.91667824  .00085130  00000-0  60675-3 0  9996,2 52707  53.2155 161.7763 0002595  17.0290  54.9338 15.73124081  1303,6728.111999999999,91.538,351.723,348.231,0.0
52707.0,STARLINK-4007,PAYLOAD,2022-06-15 06:00:00,15.731818400000002,0.0002832,53.2155,160.1285,17.2817,143.5551,0.000171,0.00023429,0.0,0 STARLINK-4007,1 52707U 22053BD  22166.25001157  .00023429  00000-0  17100-3 0  9993,2 52707  53.2155 160.1285 0002832  17.2817 143.5551 15.73181840  4699,6727.946999999999,91.534,351.717,347.907,0.0
52707.0,STARLINK-4007,PAYLOAD,2022-06-15 14:00:01,15.73250623,0.0002746,53.2153,158.4792,14.6736,235.0803,-0.00030823,-0.00043759,0.0,0 STARLINK-4007,1 52707U 22053BD  22166.58334491 -.00043759  00000-0 -30823-3 0  9996,2 52707  53.2153 158.4792 0002746  14.6736 235.0803 15.73250623  1303,6727.751,91.53,351.463,347.76800000000014,0.0
52707.0,STARLINK-4007,PAYLOAD,2022-06-15 22:00:00,15.73189288,0.0002507,53.2158,156.8278,14.7613,323.986,0.00052429,0.0007358,0.0,0 STARLINK-4007,1 52707U 22053BD  22166.91667824  .00073580  00000-0  52429-3 0  9991,2 52707  53.2158 156.8278 0002507  14.7613 323.9860 15.73189288  4805,6727.926,91.534,351.477,348.10400000000016,0.0
52707.0,STARLINK-4007,PAYLOAD,2022-06-16 02:00:01,15.73268404,0.0002516,53.2162,156.0041,13.1485,190.0655,-0.00033888,-0.00048058,0.0,0 STARLINK-4007,1 52707U 22053BD  22167.08334491 -.00048058  00000-0 -33888-3 0  9993,2 52707  53.2162 156.0041 0002516  13.1485 190.0655 15.73268404  1305,6727.7,91.529,351.2580000000001,347.872,0.0
52707.0,STARLINK-4007,PAYLOAD,2022-06-19 14:00:01,15.73215386,0.0002634999999999,53.2159,138.6855,20.3054,216.7043,-0.00014218,-0.00020544,0.0,0 STARLINK-4007,1 52707U 22053BD  22170.58334491 -.00020544  00000-0 -14218-3 0  9998,2 52707  53.2159 138.6855 0002635  20.3054 216.7043 15.73215386  1302,6727.851,91.532,351.48900000000015,347.944,0.0
52707.0,STARLINK-4007,PAYLOAD,2022-06-19 22:00:00,15.73200112,0.0002498,53.2162,137.035,25.2254,300.7147,-4.9544e-05,-7.57e-05,0.0,0 STARLINK-4007,1 52707U 22053BD  22170.91667824 -.00007570  00000-0 -49544-4 0  9999,2 52707  53.2162 137.0350 0002498  25.2254 300.7147 15.73200112  5430,6727.895,91.533,351.44,348.079,0.0
52707.0,STARLINK-4007,PAYLOAD,2022-06-20 10:00:00,15.73199927,0.0002788,53.216,134.5631,22.3465,256.9824,0.00032864,0.00045759,0.0,0 STARLINK-4007,1 52707U 22053BD  22171.41667824  .00045759  00000-0  32864-3 0  9990,2 52707  53.2160 134.5631 0002788  22.3465 256.9824 15.73199927  5510,6727.895,91.533,351.636,347.885,0.0
52707.0,STARLINK-4007,PAYLOAD,2022-06-20 14:00:01,15.73342939,0.0002687,53.2167,133.7369,25.1417,118.6318,-0.0023746,-0.00323473,0.0,0 STARLINK-4007,1 52707U 22053BD  22171.58334491 -.00323473  00000-0 -23746-2 0  9991,2 52707  53.2167 133.7369 0002687  25.1417 118.6318 15.73342939  1300,6727.488,91.525,351.16,347.545,0.0
52707.0,STARLINK-4007,PAYLOAD,2022-06-20 22:00:00,15.73208615,0.0002405,53.2161,132.0868,23.6876,209.0622,0.00021608,0.00029826,0.0,0 STARLINK-4007,1 52707U 22053BD  22171.91667824  .00029826  00000-0  21608-3 0  9996,2 52707  53.2161 132.0868 0002405  23.6876 209.0622 15.73208615  5590,6727.871,91.533,351.35400000000016,348.11800000000005,0.0
52707.0,STARLINK-4007,PAYLOAD,2022-06-21 14:00:01,15.73250869,0.0002388,53.2153,128.7883,16.1631,34.4844,-0.00051921,-0.00073029,0.0,0 STARLINK-4007,1 52707U 22053BD  22172.58334491 -.00073029  00000-0 -51921-3 0  9998,2 52707  53.2153 128.7883 0002388  16.1631  34.4844 15.73250869  5691,6727.75,91.53,351.222,348.009,0.0
52707.0,STARLINK-4007,PAYLOAD,2022-06-21 22:00:00,15.7321822,0.000226,53.2156,127.1381,18.8131,120.7779,-0.00047149,-0.00066332,0.0,0 STARLINK-4007,1 52707U 22053BD  22172.91667824 -.00066332  00000-0 -47149-3 0  9990,2 52707  53.2156 127.1381 0002260  18.8131 120.7779 15.73218220  1308,6727.843000000003,91.532,351.22900000000016,348.18800000000016,0.0
52707.0,STARLINK-4007,PAYLOAD,2022-06-22 14:00:01,15.73244808,0.0002399,53.2166,123.84,18.1792,299.2057,-0.0014078,-0.00194118,0.0,0 STARLINK-4007,1 52707U 22053BD  22173.58334491 -.00194118  00000-0 -14078-2 0  9993,2 52707  53.2166 123.8400 0002399  18.1792 299.2057 15.73244808  5859,6727.767,91.531,351.246,348.01800000000014,0.0
52707.0,STARLINK-4007,PAYLOAD,2022-06-22 22:00:00,15.732575699999998,0.0002455,53.2156,122.1898,27.0198,19.2911,-0.00051513,-0.00072486,0.0,0 STARLINK-4007,1 52707U 22053BD  22173.91667824 -.00072486  00000-0 -51513-3 0  9998,2 52707  53.2156 122.1898 0002455  27.0198  19.2911 15.73257570  5908,6727.731,91.53,351.24800000000016,347.944,0.0
52707.0,STARLINK-4007,PAYLOAD,2022-06-23 14:00:01,15.73221733,0.0002455,53.215,118.8908,27.1386,197.0858,-0.00036097,-0.0005103,0.0,0 STARLINK-4007,1 52707U 22053BD  22174.58334491 -.00051030  00000-0 -36097-3 0  9995,2 52707  53.2150 118.8908 0002455  27.1386 197.0858 15.73221733  6016,6727.833000000001,91.532,351.35,348.047,0.0
52707.0,STARLINK-4007,PAYLOAD,2022-06-23 22:00:00,15.73201635,0.0002395,53.2153,117.2411,31.2591,281.89,-0.00033785,-0.00047778,0.0,0 STARLINK-4007,1 52707U 22053BD  22174.91667824 -.00047778  00000-0 -33785-3 0  9996,2 52707  53.2153 117.2411 0002395  31.2591 281.8900 15.73201635  1304,6727.891,91.533,351.367,348.144,0.0
52707.0,STARLINK-4007,PAYLOAD,2022-06-24 14:00:01,15.73201415,0.00023,53.2155,113.942,21.1692,109.8732,7.0402e-05,9.271e-05,0.0,0 STARLINK-4007,1 52707U 22053BD  22175.58334491  .00009271  00000-0  70402-4 0  9993,2 52707  53.2155 113.9420 0002300  21.1692 109.8732 15.73201415  6162,6727.891,91.533,351.30400000000014,348.209,0.0
52707.0,STARLINK-4007,PAYLOAD,2022-06-24 22:00:01,15.73202771,0.0002376,53.2155,112.2926,26.8251,193.2117,-0.00024864,-0.00035379,0.0,0 STARLINK-4007,1 52707U 22053BD  22175.91668981 -.00035379  00000-0 -24864-3 0  9994,2 52707  53.2155 112.2926 0002376  26.8251 193.2117 15.73202771  1302,6727.887,91.533,351.351,348.154,0.0
52707.0,STARLINK-4007,PAYLOAD,2022-06-25 06:00:00,15.73182986,0.0002562,53.2151,110.645,24.5361,284.357,0.00011024,0.00014868,0.0,0 STARLINK-4007,1 52707U 22053BD  22176.25001157  .00014868  00000-0  11024-3 0  9990,2 52707  53.2151 110.6450 0002562  24.5361 284.3570 15.73182986  6277,6727.944,91.534,351.532,348.085,0.0
52707.0,STARLINK-4007,PAYLOAD,2022-06-25 14:00:01,15.731594400000002,0.000219,53.2151,108.9935,23.9911,13.8363,0.00021195,0.00029179,0.0,0 STARLINK-4007,1 52707U 22053BD  22176.58334491  .00029179  00000-0  21195-3 0  9997,2 52707  53.2151 108.9935 0002190  23.9911  13.8363 15.73159440  1309,6728.011,91.536,351.349,348.402,0.0
52707.0,STARLINK-4007,PAYLOAD,2022-06-25 22:00:00,15.73207983,0.00022,53.2155,107.3443,25.4818,101.2404,0.00017406,0.00023886,0.0,0 STARLINK-4007,1 52707U 22053BD  22176.91667824  .00023886  00000-0  17406-3 0  9992,2 52707  53.2155 107.3443 0002200  25.4818 101.2404 15.73207983  1309,6727.871999999999,91.533,351.218,348.25699999999995,0.0
52707.0,STARLINK-4007,PAYLOAD,2022-06-26 14:00:01,15.7324574,0.0002155,53.2159,104.0449,22.2086,282.5326,-0.00038947,-0.00055037,0.0,0 STARLINK-4007,1 52707U 22053BD  22177.58335648 -.00055037  00000-0 -38947-3 0  9990,2 52707  53.2159 104.0449 0002155  22.2086 282.5326 15.73245740  6487,6727.765,91.531,351.08,348.18,0.0
